{
  "type": "FeatureCollection",
  "features": [
    {
      "type": "Feature",
      "properties": {
        "norad_id": 43602,
        "name": "BEIDOU-3 M12 (C26)",
        "group": "beidou",
        "lat": 51.328586184917555,
        "lon": -57.64518668779802,
        "alt_km": 21510.84985373684,
        "timestamp": "2025-12-27T18:38:03.743521+00:00",
        "meta_object_name": "BEIDOU-3 M12 (C26)",
        "meta_object_id": "2018-067A",
        "meta_epoch": "2025-12-27T01:58:26.323104",
        "meta_mean_motion": 1.86227812,
        "meta_eccentricity": 0.0009212,
        "meta_inclination": 54.1838,
        "meta_ra_of_asc_node": 186.8764,
        "meta_arg_of_pericenter": 41.9592,
        "meta_mean_anomaly": 318.1446,
        "meta_ephemeris_type": 0,
        "meta_classification_type": "U",
        "meta_norad_cat_id": 43602,
        "meta_element_set_no": 999,
        "meta_rev_at_epoch": 4991,
        "meta_bstar": 0,
        "meta_mean_motion_dot": 1.28e-06,
        "meta_mean_motion_ddot": 0,
        "tle_line1": "1 43602U 18067A   25361.08224911  .00000128  00000+0  00000+0 0  9990",
        "tle_line2": "2 43602  54.1838 186.8764 0009212  41.9592 318.1446  1.86227812 49917"
      },
      "geometry": {
        "type": "Point",
        "coordinates": [
          -57.64518668779802,
          51.328586184917555
        ]
      }
    },
    {
      "type": "Feature",
      "properties": {
        "norad_id": 43603,
        "name": "BEIDOU-3 M11 (C25)",
        "group": "beidou",
        "lat": 12.285385146947313,
        "lon": -164.129596898524,
        "alt_km": 21512.54852772772,
        "timestamp": "2025-12-27T18:38:03.743532+00:00",
        "meta_object_name": "BEIDOU-3 M11 (C25)",
        "meta_object_id": "2018-067B",
        "meta_epoch": "2025-12-24T12:46:04.310976",
        "meta_mean_motion": 1.86227356,
        "meta_eccentricity": 0.00056287,
        "meta_inclination": 54.181,
        "meta_ra_of_asc_node": 186.927,
        "meta_arg_of_pericenter": 37.873,
        "meta_mean_anomaly": 322.1992,
        "meta_ephemeris_type": 0,
        "meta_classification_type": "U",
        "meta_norad_cat_id": 43603,
        "meta_element_set_no": 999,
        "meta_rev_at_epoch": 4989,
        "meta_bstar": 0,
        "meta_mean_motion_dot": 1.05e-06,
        "meta_mean_motion_ddot": 0,
        "tle_line1": "1 43603U 18067B   25358.53199434  .00000105  00000+0  00000+0 0  9993",
        "tle_line2": "2 43603  54.1810 186.9270 0005628  37.8730 322.1992  1.86227356 49897"
      },
      "geometry": {
        "type": "Point",
        "coordinates": [
          -164.129596898524,
          12.285385146947313
        ]
      }
    },
    {
      "type": "Feature",
      "properties": {
        "norad_id": 43622,
        "name": "BEIDOU-3 M13 (C32)",
        "group": "beidou",
        "lat": 35.70554765482876,
        "lon": 96.75987181057596,
        "alt_km": 21528.83864219548,
        "timestamp": "2025-12-27T18:38:03.743544+00:00",
        "meta_object_name": "BEIDOU-3 M13 (C32)",
        "meta_object_id": "2018-072A",
        "meta_epoch": "2025-12-26T15:16:14.846880",
        "meta_mean_motion": 1.86231061,
        "meta_eccentricity": 0.00064836,
        "meta_inclination": 56.4704,
        "meta_ra_of_asc_node": 68.3605,
        "meta_arg_of_pericenter": 297.9888,
        "meta_mean_anomaly": 61.997,
        "meta_ephemeris_type": 0,
        "meta_classification_type": "U",
        "meta_norad_cat_id": 43622,
        "meta_element_set_no": 999,
        "meta_rev_at_epoch": 4944,
        "meta_bstar": 0,
        "meta_mean_motion_dot": -3.2e-07,
        "meta_mean_motion_ddot": 0,
        "tle_line1": "1 43622U 18072A   25360.63628295 -.00000032  00000+0  00000+0 0  9996",
        "tle_line2": "2 43622  56.4704  68.3605 0006483 297.9888  61.9970  1.86231061 49446"
      },
      "geometry": {
        "type": "Point",
        "coordinates": [
          96.75987181057596,
          35.70554765482876
        ]
      }
    },
    {
      "type": "Feature",
      "properties": {
        "norad_id": 43623,
        "name": "BEIDOU-3 M14 (C33)",
        "group": "beidou",
        "lat": 36.3884720481029,
        "lon": -140.87752619179372,
        "alt_km": 21533.54861335126,
        "timestamp": "2025-12-27T18:38:03.743556+00:00",
        "meta_object_name": "BEIDOU-3 M14 (C33)",
        "meta_object_id": "2018-072B",
        "meta_epoch": "2025-12-26T12:02:31.218144",
        "meta_mean_motion": 1.86231056,
        "meta_eccentricity": 0.00036352,
        "meta_inclination": 56.4724,
        "meta_ra_of_asc_node": 68.3589,
        "meta_arg_of_pericenter": 326.7942,
        "meta_mean_anomaly": 33.2347,
        "meta_ephemeris_type": 0,
        "meta_classification_type": "U",
        "meta_norad_cat_id": 43623,
        "meta_element_set_no": 999,
        "meta_rev_at_epoch": 4943,
        "meta_bstar": 0,
        "meta_mean_motion_dot": -3.2e-07,
        "meta_mean_motion_ddot": 0,
        "tle_line1": "1 43623U 18072B   25360.50175021 -.00000032  00000+0  00000+0 0  9997",
        "tle_line2": "2 43623  56.4724  68.3589 0003635 326.7942  33.2347  1.86231056 49431"
      },
      "geometry": {
        "type": "Point",
        "coordinates": [
          -140.87752619179372,
          36.3884720481029
        ]
      }
    },
    {
      "type": "Feature",
      "properties": {
        "norad_id": 43647,
        "name": "BEIDOU-3 M16 (C35)",
        "group": "beidou",
        "lat": 23.15118602845808,
        "lon": -36.09805778009128,
        "alt_km": 21504.437561300252,
        "timestamp": "2025-12-27T18:38:03.743568+00:00",
        "meta_object_name": "BEIDOU-3 M16 (C35)",
        "meta_object_id": "2018-078A",
        "meta_epoch": "2025-12-26T02:56:19.347360",
        "meta_mean_motion": 1.86232218,
        "meta_eccentricity": 0.0007499,
        "meta_inclination": 54.2494,
        "meta_ra_of_asc_node": 306.0535,
        "meta_arg_of_pericenter": 20.7112,
        "meta_mean_anomaly": 339.3289,
        "meta_ephemeris_type": 0,
        "meta_classification_type": "U",
        "meta_norad_cat_id": 43647,
        "meta_element_set_no": 999,
        "meta_rev_at_epoch": 4893,
        "meta_bstar": 0,
        "meta_mean_motion_dot": -5.5e-07,
        "meta_mean_motion_ddot": 0,
        "tle_line1": "1 43647U 18078A   25360.12244615 -.00000055  00000+0  00000+0 0  9998",
        "tle_line2": "2 43647  54.2494 306.0535 0007499  20.7112 339.3289  1.86232218 48932"
      },
      "geometry": {
        "type": "Point",
        "coordinates": [
          -36.09805778009128,
          23.15118602845808
        ]
      }
    },
    {
      "type": "Feature",
      "properties": {
        "norad_id": 43648,
        "name": "BEIDOU-3 M15 (C34)",
        "group": "beidou",
        "lat": -43.33394062935336,
        "lon": -96.7923758065366,
        "alt_km": 21530.51126032597,
        "timestamp": "2025-12-27T18:38:03.743579+00:00",
        "meta_object_name": "BEIDOU-3 M15 (C34)",
        "meta_object_id": "2018-078B",
        "meta_epoch": "2025-12-27T07:48:48.610368",
        "meta_mean_motion": 1.86232284,
        "meta_eccentricity": 0.0004082,
        "meta_inclination": 54.2443,
        "meta_ra_of_asc_node": 306.0127,
        "meta_arg_of_pericenter": 20.0371,
        "meta_mean_anomaly": 339.9874,
        "meta_ephemeris_type": 0,
        "meta_classification_type": "U",
        "meta_norad_cat_id": 43648,
        "meta_element_set_no": 999,
        "meta_rev_at_epoch": 4897,
        "meta_bstar": 0,
        "meta_mean_motion_dot": -6e-07,
        "meta_mean_motion_ddot": 0,
        "tle_line1": "1 43648U 18078B   25361.32556262 -.00000060  00000+0  00000+0 0  9992",
        "tle_line2": "2 43648  54.2443 306.0127 0004082  20.0371 339.9874  1.86232284 48972"
      },
      "geometry": {
        "type": "Point",
        "coordinates": [
          -96.7923758065366,
          -43.33394062935336
        ]
      }
    },
    {
      "type": "Feature",
      "properties": {
        "norad_id": 43683,
        "name": "BEIDOU-3 G1 (C59)",
        "group": "beidou",
        "lat": 2.134992938783611,
        "lon": 155.970866550614,
        "alt_km": 35776.131449134526,
        "timestamp": "2025-12-27T18:38:03.743591+00:00",
        "meta_object_name": "BEIDOU-3 G1 (C59)",
        "meta_object_id": "2018-085A",
        "meta_epoch": "2025-12-27T11:57:18.832032",
        "meta_mean_motion": 1.00276338,
        "meta_eccentricity": 0.0002014,
        "meta_inclination": 2.6425,
        "meta_ra_of_asc_node": 102.5295,
        "meta_arg_of_pericenter": 59.0342,
        "meta_mean_anomaly": 253.9772,
        "meta_ephemeris_type": 0,
        "meta_classification_type": "U",
        "meta_norad_cat_id": 43683,
        "meta_element_set_no": 999,
        "meta_rev_at_epoch": 2633,
        "meta_bstar": 0,
        "meta_mean_motion_dot": -2.55e-06,
        "meta_mean_motion_ddot": 0,
        "tle_line1": "1 43683U 18085A   25361.49813463 -.00000255  00000+0  00000+0 0  9992",
        "tle_line2": "2 43683   2.6425 102.5295 0002014  59.0342 253.9772  1.00276338 26338"
      },
      "geometry": {
        "type": "Point",
        "coordinates": [
          155.970866550614,
          2.134992938783611
        ]
      }
    }
  ]
}